$$SOE
2461288.500000000, A.D. 2026-Sep-05 00:00:00.0000, 1.797646807531641E+08, -1.768785005504780E+08, 3.111932340075944E+07,
2461295.500000000, A.D. 2026-Sep-12 00:00:00.0000, 1.886930022240886E+08, -1.642795532776481E+08, 3.224015581864508E+07,
2461302.500000000, A.D. 2026-Sep-19 00:00:00.0000, 1.970507945374402E+08, -1.511841122989458E+08, 3.326350689693248E+07,
2461309.500000000, A.D. 2026-Sep-26 00:00:00.0000, 2.048008219380797E+08, -1.376225707669696E+08, 3.418426259203392E+07,
2461316.500000000, A.D. 2026-Oct-03 00:00:00.0000, 2.119078761022069E+08, -1.236291380546958E+08, 3.499769598648044E+07,
2461323.500000000, A.D. 2026-Oct-10 00:00:00.0000, 2.183392807949498E+08, -1.092416783822446E+08, 3.569954156877192E+07,
2461330.500000000, A.D. 2026-Oct-17 00:00:00.0000, 2.240653829101990E+08, -9.450146618877262E+07, 3.628606576549974E+07,
2461337.500000000, A.D. 2026-Oct-24 00:00:00.0000, 2.290600136147602E+08, -7.945285913159086E+07, 3.675413124773037E+07,
2461344.500000000, A.D. 2026-Oct-31 00:00:00.0000, 2.333009032823545E+08, -6.414289341111661E+07, 3.710125257149923E+07,
2461351.500000000, A.D. 2026-Nov-07 00:00:00.0000, 2.367700350336107E+08, -4.862080981245276E+07, 3.732564090504531E+07,
2461358.500000000, A.D. 2026-Nov-14 00:00:00.0000, 2.394539234923078E+08, -3.293752163462026E+07, 3.742623604378998E+07,
2461365.500000000, A.D. 2026-Nov-21 00:00:00.0000, 2.413438062478639E+08, -1.714503896642118E+07, 3.740272459780109E+07,
2461372.500000000, A.D. 2026-Nov-28 00:00:00.0000, 2.424357399407501E+08, -1.295869732547790E+06, 3.725554345716902E+07,
2461379.500000000, A.D. 2026-Dec-05 00:00:00.0000, 2.427306015962346E+08, 1.455758319980433E+07, 3.698586805459443E+07,
2461386.500000000, A.D. 2026-Dec-12 00:00:00.0000, 2.422339966750599E+08, 3.036361323815244E+07, 3.659558623425366E+07,
2461393.500000000, A.D. 2026-Dec-19 00:00:00.0000, 2.409560773992147E+08, 4.607177189961756E+07, 3.608725908966994E+07,
2461400.500000000, A.D. 2026-Dec-26 00:00:00.0000, 2.389112803121787E+08, 6.163338470625404E+07, 3.546407042301932E+07,
2461407.500000000, A.D. 2027-Jan-02 00:00:00.0000, 2.361179953776631E+08, 7.700200808940579E+07, 3.472976688797590E+07,
2461414.500000000, A.D. 2027-Jan-09 00:00:00.0000, 2.325981807948799E+08, 9.213381782620351E+07, 3.388859115526146E+07,
2461421.500000000, A.D. 2027-Jan-16 00:00:00.0000, 2.283769386961580E+08, 1.069879231239557E+08, 3.294521053935864E+07,
2461428.500000000, A.D. 2027-Jan-23 00:00:00.0000, 2.234820670348086E+08, 1.215266039809749E+08, 3.190464346971317E+07,
2461435.500000000, A.D. 2027-Jan-30 00:00:00.0000, 2.179436024137287E+08, 1.357154727184438E+08, 3.077218600416333E+07,
2461442.500000000, A.D. 2027-Feb-06 00:00:00.0000, 2.117933674739944E+08, 1.495235637615780E+08, 2.955334032485615E+07,
2461449.500000000, A.D. 2027-Feb-13 00:00:00.0000, 2.050645337107362E+08, 1.629233588268988E+08, 2.825374697519173E+07,
2461456.500000000, A.D. 2027-Feb-20 00:00:00.0000, 1.977912065325066E+08, 1.758907542606115E+08, 2.687912225254757E+07,
2461463.500000000, A.D. 2027-Feb-27 00:00:00.0000, 1.900080409574299E+08, 1.884049758276761E+08, 2.543520127880882E+07,
2461470.500000000, A.D. 2027-Mar-06 00:00:00.0000, 1.817498957918956E+08, 2.004484517489595E+08, 2.392768718988331E+07,
2461477.500000000, A.D. 2027-Mar-13 00:00:00.0000, 1.730515274973733E+08, 2.120066548280754E+08, 2.236220701184882E+07,
2461484.500000000, A.D. 2027-Mar-20 00:00:00.0000, 1.639473236882592E+08, 2.230679211835232E+08, 2.074427425884911E+07,
2461491.500000000, A.D. 2027-Mar-27 00:00:00.0000, 1.544710760973777E+08, 2.336232526676306E+08, 1.907925798227337E+07,
2461498.500000000, A.D. 2027-Apr-03 00:00:00.0000, 1.446557917105496E+08, 2.436661096646687E+08, 1.737235788432483E+07,
2461505.500000000, A.D. 2027-Apr-10 00:00:00.0000, 1.345335397893758E+08, 2.531922000580254E+08, 1.562858501798514E+07,
2461512.500000000, A.D. 2027-Apr-17 00:00:00.0000, 1.241353318908145E+08, 2.621992691309708E+08, 1.385274752782960E+07,
2461519.500000000, A.D. 2027-Apr-24 00:00:00.0000, 1.134910317101566E+08, 2.706868941666622E+08, 1.204944084396885E+07,
2461526.500000000, A.D. 2027-May-01 00:00:00.0000, 1.026292916469521E+08, 2.786562867257947E+08, 1.022304172359990E+07,
2461533.500000000, A.D. 2027-May-08 00:00:00.0000, 9.157751300743850E+07, 2.861101055202063E+08, 8.377705608838633E+06,
2461540.500000000, A.D. 2027-May-15 00:00:00.0000, 8.036182507476977E+07, 2.930522823195262E+08, 6.517366981649965E+06,
2461547.500000000, A.D. 2027-May-22 00:00:00.0000, 6.900707839420944E+07, 2.994878591949994E+08, 4.645742155534759E+06,
2461554.500000000, A.D. 2027-May-29 00:00:00.0000, 5.753685278082081E+07, 3.054228360843974E+08, 2.766333634447187E+06,
2461561.500000000, A.D. 2027-Jun-05 00:00:00.0000, 4.597347838272198E+07, 3.108640318946617E+08, 8.824358186491877E+05,
2461568.500000000, A.D. 2027-Jun-12 00:00:00.0000, 3.433806552120598E+07, 3.158189593493677E+08, -1.002858069198012E+06,
2461575.500000000, A.D. 2027-Jun-19 00:00:00.0000, 2.265054098162485E+07, 3.202957122086545E+08, -2.886648180840224E+06,
2461582.500000000, A.D. 2027-Jun-26 00:00:00.0000, 1.092968931305730E+07, 3.243028640145245E+08, -4.766219661724225E+06,
2461589.500000000, A.D. 2027-Jul-03 00:00:00.0000, -8.068021962395814E+05, 3.278493776814425E+08, -6.639033916467220E+06,
2461596.500000000, A.D. 2027-Jul-10 00:00:00.0000, -1.254229606196136E+07, 3.309445251877267E+08, -8.502719698842317E+06,
2461603.500000000, A.D. 2027-Jul-17 00:00:00.0000, -2.426115565238864E+07, 3.335978165405374E+08, -1.035506417525271E+07,
2461610.500000000, A.D. 2027-Jul-24 00:00:00.0000, -3.594869543043572E+07, 3.358189371548643E+08, -1.219400409371376E+07,
2461617.500000000, A.D. 2027-Jul-31 00:00:00.0000, -4.759113066974643E+07, 3.376176931041313E+08, -1.401761716379030E+07,
2461624.500000000, A.D. 2027-Aug-07 00:00:00.0000, -5.917552740255703E+07, 3.390039646588629E+08, -1.582411360230602E+07,
2461631.500000000, A.D. 2027-Aug-14 00:00:00.0000, -7.068975532954377E+07, 3.399876671723003E+08, -1.761182770705603E+07,
2461638.500000000, A.D. 2027-Aug-21 00:00:00.0000, -8.212244339338499E+07, 3.405787152926195E+08, -1.937920982774666E+07,
2461645.500000000, A.D. 2027-Aug-28 00:00:00.0000, -9.346293482826173E+07, 3.407869910938824E+08, -2.112481897573188E+07,
2461652.500000000, A.D. 2027-Sep-04 00:00:00.0000, -1.047012430360507E+08, 3.406223180727925E+08, -2.284731577720371E+07,
2461659.500000000, A.D. 2027-Sep-11 00:00:00.0000, -1.158280097926189E+08, 3.400944398324248E+08, -2.454545570400462E+07,
2461666.500000000, A.D. 2027-Sep-18 00:00:00.0000, -1.268344657170319E+08, 3.392130023283283E+08, -2.621808264797485E+07,
2461673.500000000, A.D. 2027-Sep-25 00:00:00.0000, -1.377123928051512E+08, 3.379875391725463E+08, -2.786412286200532E+07,
2461680.500000000, A.D. 2027-Oct-02 00:00:00.0000, -1.484540889527753E+08, 3.364274596403236E+08, -2.948257926474035E+07,
2461687.500000000, A.D. 2027-Oct-09 00:00:00.0000, -1.590523344221444E+08, 3.345420390322144E+08, -3.107252610093714E+07,
2461694.500000000, A.D. 2027-Oct-16 00:00:00.0000, -1.695003601465042E+08, 3.323404110304507E+08, -3.263310395528506E+07,
2461701.500000000, A.D. 2027-Oct-23 00:00:00.0000, -1.797918175569881E+08, 3.298315617708248E+08, -3.416351513002047E+07,
2461708.500000000, A.D. 2027-Oct-30 00:00:00.0000, -1.899207494918699E+08, 3.270243259977424E+08, -3.566301935594544E+07,
2461715.500000000, A.D. 2027-Nov-06 00:00:00.0000, -1.998815632807223E+08, 3.239273862172493E+08, -3.713092962308989E+07,
2461722.500000000, A.D. 2027-Nov-13 00:00:00.0000, -2.096690079111470E+08, 3.205492725851421E+08, -3.856660810389717E+07,
2461729.500000000, A.D. 2027-Nov-20 00:00:00.0000, -2.192781522920384E+08, 3.168983611735917E+08, -3.996946259703615E+07,
2461736.500000000, A.D. 2027-Nov-27 00:00:00.0000, -2.287043629174790E+08, 3.129828734286312E+08, -4.133894338153102E+07,
2461743.500000000, A.D. 2027-Dec-04 00:00:00.0000, -2.379432828787325E+08, 3.088108776063312E+08, -4.267454020729032E+07,
2461750.500000000, A.D. 2027-Dec-11 00:00:00.0000, -2.469908126952370E+08, 3.043902911125727E+08, -4.397577943650210E+07,
2461757.500000000, A.D. 2027-Dec-18 00:00:00.0000, -2.558430926118134E+08, 2.997288833074439E+08, -4.524222137474856E+07,
2461764.500000000, A.D. 2027-Dec-25 00:00:00.0000, -2.644964861359726E+08, 2.948342786849694E+08, -4.647345779264146E+07,
2461771.500000000, A.D. 2028-Jan-01 00:00:00.0000, -2.729475647029645E+08, 2.897139603674632E+08, -4.766910962811731E+07,
$$EOE